[{"OBJECT_NAME":"ASTRO-H (HITOMI)","OBJECT_ID":"2016-012A","EPOCH":"2026-03-05T06:30:37.422144","MEAN_MOTION":15.0996782,"ECCENTRICITY":0.0009998,"INCLINATION":31.0008,"RA_OF_ASC_NODE":25.0587,"ARG_OF_PERICENTER":287.1051,"MEAN_ANOMALY":72.8492,"EPHEMERIS_TYPE":0,"CLASSIFICATION_TYPE":"U","NORAD_CAT_ID":41337,"ELEMENT_SET_NO":999,"REV_AT_EPOCH":55156,"BSTAR":0.00028587552,"MEAN_MOTION_DOT":4.856e-5,"MEAN_MOTION_DDOT":0},{"OBJECT_NAME":"HXMT (HUIYAN)","OBJECT_ID":"2017-034A","EPOCH":"2026-03-05T07:14:18.379104","MEAN_MOTION":15.17391548,"ECCENTRICITY":0.00324755,"INCLINATION":43.0151,"RA_OF_ASC_NODE":41.067,"ARG_OF_PERICENTER":209.1306,"MEAN_ANOMALY":150.773,"EPHEMERIS_TYPE":0,"CLASSIFICATION_TYPE":"U","NORAD_CAT_ID":42758,"ELEMENT_SET_NO":999,"REV_AT_EPOCH":48187,"BSTAR":0.00034897682,"MEAN_MOTION_DOT":6.961e-5,"MEAN_MOTION_DDOT":0},{"OBJECT_NAME":"SAOCOM 1A","OBJECT_ID":"2018-076A","EPOCH":"2026-03-05T07:18:55.407744","MEAN_MOTION":14.82163947,"ECCENTRICITY":0.00013243,"INCLINATION":97.8883,"RA_OF_ASC_NODE":252.5391,"ARG_OF_PERICENTER":80.9859,"MEAN_ANOMALY":279.1504,"EPHEMERIS_TYPE":0,"CLASSIFICATION_TYPE":"U","NORAD_CAT_ID":43641,"ELEMENT_SET_NO":999,"REV_AT_EPOCH":40071,"BSTAR":7.2375416e-5,"MEAN_MOTION_DOT":5.24e-6,"MEAN_MOTION_DDOT":0},{"OBJECT_NAME":"H-2A R/B","OBJECT_ID":"2018-084L","EPOCH":"2026-03-05T04:31:00.464448","MEAN_MOTION":15.4111921,"ECCENTRICITY":0.0025747,"INCLINATION":98.873,"RA_OF_ASC_NODE":280.6151,"ARG_OF_PERICENTER":40.5968,"MEAN_ANOMALY":319.7187,"EPHEMERIS_TYPE":0,"CLASSIFICATION_TYPE":"U","NORAD_CAT_ID":43682,"ELEMENT_SET_NO":999,"REV_AT_EPOCH":40508,"BSTAR":0.00056439585,"MEAN_MOTION_DOT":0.00023573,"MEAN_MOTION_DDOT":0},{"OBJECT_NAME":"SAOCOM 1B","OBJECT_ID":"2020-059A","EPOCH":"2026-03-05T06:26:39.980256","MEAN_MOTION":14.82166583,"ECCENTRICITY":0.00014453,"INCLINATION":97.8881,"RA_OF_ASC_NODE":251.6014,"ARG_OF_PERICENTER":82.4337,"MEAN_ANOMALY":277.704,"EPHEMERIS_TYPE":0,"CLASSIFICATION_TYPE":"U","NORAD_CAT_ID":46265,"ELEMENT_SET_NO":999,"REV_AT_EPOCH":29809,"BSTAR":7.8700047e-5,"MEAN_MOTION_DOT":5.74e-6,"MEAN_MOTION_DDOT":0},{"OBJECT_NAME":"CSS (TIANHE)","OBJECT_ID":"2021-035A","EPOCH":"2026-03-04T21:58:42.573792","MEAN_MOTION":15.60409426,"ECCENTRICITY":0.00068036,"INCLINATION":41.4655,"RA_OF_ASC_NODE":237.2033,"ARG_OF_PERICENTER":243.7897,"MEAN_ANOMALY":116.2243,"EPHEMERIS_TYPE":0,"CLASSIFICATION_TYPE":"U","NORAD_CAT_ID":48274,"ELEMENT_SET_NO":999,"REV_AT_EPOCH":27686,"BSTAR":0.00026479219,"MEAN_MOTION_DOT":0.00022117,"MEAN_MOTION_DDOT":0},{"OBJECT_NAME":"COSMOS 2550","OBJECT_ID":"2021-056A","EPOCH":"2026-03-05T06:41:31.646400","MEAN_MOTION":15.33827452,"ECCENTRICITY":0.00083729,"INCLINATION":67.1449,"RA_OF_ASC_NODE":54.2738,"ARG_OF_PERICENTER":269.5116,"MEAN_ANOMALY":90.5079,"EPHEMERIS_TYPE":0,"CLASSIFICATION_TYPE":"U","NORAD_CAT_ID":48865,"ELEMENT_SET_NO":999,"REV_AT_EPOCH":26278,"BSTAR":-1.85087e-7,"MEAN_MOTION_DOT":-1.98e-6,"MEAN_MOTION_DDOT":0},{"OBJECT_NAME":"CZ-2C R/B","OBJECT_ID":"2022-058K","EPOCH":"2026-03-05T03:21:32.438592","MEAN_MOTION":15.5384921,"ECCENTRICITY":0.00420759,"INCLINATION":50.1909,"RA_OF_ASC_NODE":341.6872,"ARG_OF_PERICENTER":181.2962,"MEAN_ANOMALY":178.7906,"EPHEMERIS_TYPE":0,"CLASSIFICATION_TYPE":"U","NORAD_CAT_ID":52794,"ELEMENT_SET_NO":999,"REV_AT_EPOCH":20942,"BSTAR":0.00055741068,"MEAN_MOTION_DOT":0.00037686,"MEAN_MOTION_DDOT":0},{"OBJECT_NAME":"CZ-2C R/B","OBJECT_ID":"2022-132E","EPOCH":"2026-03-05T03:25:05.298816","MEAN_MOTION":15.61400417,"ECCENTRICITY":0.00207892,"INCLINATION":97.2959,"RA_OF_ASC_NODE":67.3229,"ARG_OF_PERICENTER":106.0747,"MEAN_ANOMALY":254.2802,"EPHEMERIS_TYPE":0,"CLASSIFICATION_TYPE":"U","NORAD_CAT_ID":54039,"ELEMENT_SET_NO":999,"REV_AT_EPOCH":18966,"BSTAR":0.00056112008,"MEAN_MOTION_DOT":0.00048407,"MEAN_MOTION_DDOT":0},{"OBJECT_NAME":"GSLV R/B","OBJECT_ID":"2022-138AN","EPOCH":"2026-03-05T05:47:40.551648","MEAN_MOTION":14.96738149,"ECCENTRICITY":0.00223919,"INCLINATION":87.3887,"RA_OF_ASC_NODE":167.8509,"ARG_OF_PERICENTER":162.059,"MEAN_ANOMALY":198.1437,"EPHEMERIS_TYPE":0,"CLASSIFICATION_TYPE":"U","NORAD_CAT_ID":54149,"ELEMENT_SET_NO":999,"REV_AT_EPOCH":18326,"BSTAR":0.00041075251,"MEAN_MOTION_DOT":4.744e-5,"MEAN_MOTION_DDOT":0},{"OBJECT_NAME":"XRISM","OBJECT_ID":"2023-137A","EPOCH":"2026-03-05T02:00:54.049824","MEAN_MOTION":15.11436955,"ECCENTRICITY":0.00081225,"INCLINATION":31.0029,"RA_OF_ASC_NODE":313.4527,"ARG_OF_PERICENTER":351.8434,"MEAN_ANOMALY":8.2072,"EPHEMERIS_TYPE":0,"CLASSIFICATION_TYPE":"U","NORAD_CAT_ID":57800,"ELEMENT_SET_NO":999,"REV_AT_EPOCH":13709,"BSTAR":0.00040305953,"MEAN_MOTION_DOT":7.086e-5,"MEAN_MOTION_DDOT":0},{"OBJECT_NAME":"ACS3","OBJECT_ID":"2024-077B","EPOCH":"2026-03-05T05:59:08.145312","MEAN_MOTION":13.89370277,"ECCENTRICITY":0.00564149,"INCLINATION":97.2102,"RA_OF_ASC_NODE":6.3601,"ARG_OF_PERICENTER":88.4202,"MEAN_ANOMALY":272.3422,"EPHEMERIS_TYPE":0,"CLASSIFICATION_TYPE":"U","NORAD_CAT_ID":59588,"ELEMENT_SET_NO":999,"REV_AT_EPOCH":9358,"BSTAR":0.019468964,"MEAN_MOTION_DOT":0.00024087,"MEAN_MOTION_DDOT":0},{"OBJECT_NAME":"SZ-21 MODULE","OBJECT_ID":"2025-246C","EPOCH":"2026-03-05T04:05:15.475200","MEAN_MOTION":15.68139607,"ECCENTRICITY":0.00014689,"INCLINATION":41.4734,"RA_OF_ASC_NODE":231.173,"ARG_OF_PERICENTER":290.314,"MEAN_ANOMALY":69.7543,"EPHEMERIS_TYPE":0,"CLASSIFICATION_TYPE":"U","NORAD_CAT_ID":66515,"ELEMENT_SET_NO":999,"REV_AT_EPOCH":1736,"BSTAR":0.00035896004,"MEAN_MOTION_DOT":0.00041059,"MEAN_MOTION_DDOT":0}]
